[{"OBJECT_NAME":"HAWK-6A","OBJECT_ID":"2023-011D","EPOCH":"2026-03-14T14:15:15.599520","MEAN_MOTION":15.21981437,"ECCENTRICITY":0.00014984,"INCLINATION":40.4978,"RA_OF_ASC_NODE":181.8937,"ARG_OF_PERICENTER":51.2057,"MEAN_ANOMALY":308.8886,"EPHEMERIS_TYPE":0,"CLASSIFICATION_TYPE":"U","NORAD_CAT_ID":55327,"ELEMENT_SET_NO":999,"REV_AT_EPOCH":17343,"BSTAR":0.00034218324,"MEAN_MOTION_DOT":7.787e-5,"MEAN_MOTION_DDOT":0},{"OBJECT_NAME":"HAWK-7A","OBJECT_ID":"2023-054P","EPOCH":"2026-03-15T06:17:08.058048","MEAN_MOTION":15.26294814,"ECCENTRICITY":0.00038808,"INCLINATION":97.2831,"RA_OF_ASC_NODE":323.9892,"ARG_OF_PERICENTER":37.3083,"MEAN_ANOMALY":322.8425,"EPHEMERIS_TYPE":0,"CLASSIFICATION_TYPE":"U","NORAD_CAT_ID":56191,"ELEMENT_SET_NO":999,"REV_AT_EPOCH":16269,"BSTAR":0.00029443341,"MEAN_MOTION_DOT":7.569e-5,"MEAN_MOTION_DDOT":0},{"OBJECT_NAME":"HAWK-7B","OBJECT_ID":"2023-054R","EPOCH":"2026-03-15T04:42:37.477440","MEAN_MOTION":15.26293484,"ECCENTRICITY":0.00033908,"INCLINATION":97.2863,"RA_OF_ASC_NODE":322.1535,"ARG_OF_PERICENTER":50.9066,"MEAN_ANOMALY":309.2474,"EPHEMERIS_TYPE":0,"CLASSIFICATION_TYPE":"U","NORAD_CAT_ID":56193,"ELEMENT_SET_NO":999,"REV_AT_EPOCH":16268,"BSTAR":0.00029646612,"MEAN_MOTION_DOT":7.622e-5,"MEAN_MOTION_DDOT":0},{"OBJECT_NAME":"HAWK-7C","OBJECT_ID":"2023-054Y","EPOCH":"2026-03-15T06:16:51.642912","MEAN_MOTION":15.26293452,"ECCENTRICITY":0.00032407,"INCLINATION":97.2836,"RA_OF_ASC_NODE":323.0167,"ARG_OF_PERICENTER":41.0099,"MEAN_ANOMALY":319.1383,"EPHEMERIS_TYPE":0,"CLASSIFICATION_TYPE":"U","NORAD_CAT_ID":56200,"ELEMENT_SET_NO":999,"REV_AT_EPOCH":16269,"BSTAR":0.00028563459,"MEAN_MOTION_DOT":7.34e-5,"MEAN_MOTION_DDOT":0}]
