HAWK-6A                 
1 55327U 23011D   26073.59393055  .00007787  00000+0  34218-3 0  9995
2 55327  40.4978 181.8937 0001498  51.2057 308.8886 15.21981437173435
HAWK-7A                 
1 56191U 23054P   26074.26189882  .00007569  00000+0  29443-3 0  9990
2 56191  97.2831 323.9892 0003880  37.3083 322.8425 15.26294814162695
HAWK-7B                 
1 56193U 23054R   26074.19626710  .00007622  00000+0  29647-3 0  9996
2 56193  97.2863 322.1535 0003390  50.9066 309.2474 15.26293484162689
HAWK-7C                 
1 56200U 23054Y   26074.26170883  .00007340  00000+0  28563-3 0  9991
2 56200  97.2836 323.0167 0003240  41.0099 319.1383 15.26293452162695
